STARLINK-36939          
1 68034U 26040V   26073.91668981 -.01664808  78957-3 -46024-2 0  9991
2 68034  97.2772  22.5719 0001168  91.8357 300.9335 15.93962432  3260
STARLINK-36943          
1 68035U 26040W   26073.91668981 -.01710944  82948-3 -47688-2 0  9997
2 68035  97.2790  22.5819 0001067  87.4403 326.7968 15.93812726  3317
STARLINK-36906          
1 68036U 26040X   26073.91668981 -.01658672  78367-3 -46002-2 0  9996
2 68036  97.2761  22.5698 0001191  91.4325 297.4433 15.93900154  3265
STARLINK-36388          
1 68037U 26040Y   26073.91668981 -.01675113  79890-3 -46249-2 0  9991
2 68037  97.2775  22.5741 0001196  86.6502 311.1761 15.93988574  3213
STARLINK-36895          
1 68038U 26040Z   26073.91668981 -.01660694  78506-3 -46174-2 0  9990
2 68038  97.2746  22.5668 0001099  90.0595 294.6889 15.93852836  3265
STARLINK-36373          
1 68039U 26040AA  26073.91668981 -.01653725  77868-3 -46059-2 0  9990
2 68039  97.2745  22.5654 0001053  84.7677 295.3296 15.93819510  3218
STARLINK-37022          
1 68101U 26044A   26073.83335648 -.01807908  98604-3 -35641-2 0  9996
2 68101  97.2823  34.0920 0001400 103.7094 157.5120 16.00184640  2223
STARLINK-37046          
1 68102U 26044B   26073.83335648 -.01798272  97741-3 -35231-2 0  9996
2 68102  97.2824  34.0929 0001404  99.6959 162.9767 16.00293324  2228
STARLINK-37018          
1 68103U 26044C   26073.83335648 -.01797576  97832-3 -34933-2 0  9992
2 68103  97.2821  34.0938 0001408  96.8267 168.0491 16.00435970  2171
STARLINK-37041          
1 68104U 26044D   26073.83335648 -.01796547  98032-3 -34386-2 0  9995
2 68104  97.2823  34.0956 0001333 100.6813 168.1046 16.00703585  2179
STARLINK-37021          
1 68105U 26044E   26073.83335648 -.01778393  96304-3 -33815-2 0  9991
2 68105  97.2818  34.0960 0001310  93.3142 177.1210 16.00817004  2172
STARLINK-37024          
1 68106U 26044F   26073.83335648 -.01770193  95611-3 -33416-2 0  9999
2 68106  97.2818  34.0967 0001340  92.5937 179.7097 16.00942753  2177
STARLINK-37005          
1 68107U 26044G   26073.83335648 -.01797427  97967-3 -34670-2 0  9998
2 68107  97.2820  34.0943 0001365  95.8565 170.9586 16.00567848  2179
STARLINK-37017          
1 68108U 26044H   26073.83335648 -.01793776  98198-3 -33572-2 0  9999
2 68108  97.2819  34.0979 0001294  93.1761 181.2543 16.01095611  2170
STARLINK-36833          
1 68109U 26044J   26073.83335648 -.01788510  97958-3 -32973-2 0  9997
2 68109  97.2812  34.0993 0001318  95.3681 182.9416 16.01357428  2222
STARLINK-36830          
1 68110U 26044K   26073.83335648 -.01781265  97065-3 -33080-2 0  9998
2 68110  97.2814  34.0985 0001372 100.5612 176.0373 16.01229232  2227
